NORAD_CAT_ID,OBJECT_NAME,OBJECT_TYPE,EPOCH,MEAN_MOTION,ECCENTRICITY,INCLINATION,RA_OF_ASC_NODE,ARG_OF_PERICENTER,MEAN_ANOMALY,BSTAR,MEAN_MOTION_DOT,MEAN_MOTION_DDOT,TLE_LINE0,TLE_LINE1,TLE_LINE2,SEMIMAJOR_AXIS,PERIOD,APOGEE,PERIGEE,DECAYED
53431.0,STARLINK-4548,PAYLOAD,2023-03-01 03:32:05,15.08810824,0.0001231,53.2188,22.729,108.7778,251.3348,-0.00045875,-7.575e-05,0.0,0 STARLINK-4548,1 53431U 22097AV  23060.14729101 -.00007575  00000-0 -45875-3 0  9990,2 53431  53.2188  22.7290 0001231 108.7778 251.3348 15.08810824 31559,6917.97,95.439,540.686,538.983,0.0
53431.0,STARLINK-4548,PAYLOAD,2023-03-01 06:42:54,15.08812062,0.0001247,53.2194,22.1343,71.6554,288.4573,-0.00025672,-4.368e-05,0.0,0 STARLINK-4548,1 53431U 22097AV  23060.27979290 -.00004368  00000-0 -25672-3 0  9990,2 53431  53.2194  22.1343 0001247  71.6554 288.4573 15.08812062 31575,6917.966,95.439,540.693,538.968,0.0
53431.0,STARLINK-4548,PAYLOAD,2023-03-02 03:22:52,15.08834296,0.0001163,53.218,18.2661,79.7268,280.3855,0.00055676,8.583e-05,0.0,0 STARLINK-4548,1 53431U 22097AV  23061.14088862  .00008583  00000-0  55676-3 0  9991,2 53431  53.2180  18.2661 0001163  79.7268 280.3855 15.08834296 31709,6917.898,95.438,540.567,538.958,0.0
53431.0,STARLINK-4548,PAYLOAD,2023-03-02 19:16:41,15.08859456,9.22e-05,53.2203,15.2939,81.5871,278.5225,0.00054943,8.472e-05,0.0,0 STARLINK-4548,1 53431U 22097AV  23061.80325536  .00008472  00000-0  54943-3 0  9999,2 53431  53.2203  15.2939 0000922  81.5871 278.5225 15.08859456 32282,6917.821,95.436,540.324,539.048,0.0
53431.0,STARLINK-4548,PAYLOAD,2023-03-03 06:24:25,15.08843231,0.0001145,53.2189,13.2119,70.2766,289.8349,0.00044155,6.747e-05,0.0,0 STARLINK-4548,1 53431U 22097AV  23062.26696091  .00006747  00000-0  44155-3 0  9994,2 53431  53.2189  13.2119 0001145  70.2766 289.8349 15.08843231 31879,6917.871,95.437,540.528,538.943,0.0
53431.0,STARLINK-4548,PAYLOAD,2023-03-03 19:07:30,15.08851998,0.0001061,53.2186,10.8353,71.2084,288.9023,1.2859e-05,-8.3e-07,0.0,0 STARLINK-4548,1 53431U 22097AV  23062.79687763 -.00000083  00000-0  12859-4 0  9993,2 53431  53.2186  10.8353 0001061  71.2084 288.9023 15.08851998 32431,6917.844,95.437,540.443,538.975,0.0
53431.0,STARLINK-4548,PAYLOAD,2023-03-04 03:04:24,15.08868882,0.0001101,53.2186,9.3471,92.7768,267.335,-0.00012506,-2.279e-05,0.0,0 STARLINK-4548,1 53431U 22097AV  23063.12806578 -.00002279  00000-0 -12506-3 0  9996,2 53431  53.2186   9.3471 0001101  92.7768 267.3350 15.08868882 32004,6917.792,95.436,540.419,538.895,0.0
53431.0,STARLINK-4548,PAYLOAD,2023-03-04 20:33:40,15.08837562,0.0001211,53.219,6.0785,87.1427,272.9703,-7.2547e-05,-1.442e-05,0.0,0 STARLINK-4548,1 53431U 22097AV  23063.85672139 -.00001442  00000-0 -72547-4 0  9993,2 53431  53.2190   6.0785 0001211  87.1427 272.9703 15.08837562 32110,6917.888,95.438,540.591,538.915,0.0
53431.0,STARLINK-4548,PAYLOAD,2023-03-05 06:05:59,15.08837202,0.0001351,53.2187,4.2938,77.1107,283.0036,-4.9922e-05,-1.082e-05,0.0,0 STARLINK-4548,1 53431U 22097AV  23064.25416305 -.00001082  00000-0 -49922-4 0  9990,2 53431  53.2187   4.2938 0001351  77.1107 283.0036 15.08837202 32657,6917.889,95.438,540.689,538.819,0.0
53431.0,STARLINK-4548,PAYLOAD,2023-03-06 04:21:22,15.08864322,8.82e-05,53.2183,0.1303,83.8335,276.2757,0.00044903,6.87e-05,0.0,0 STARLINK-4548,1 53431U 22097AV  23065.18151228  .00006870  00000-0  44903-3 0  9994,2 53431  53.2183   0.1303 0000882  83.8335 276.2757 15.08864322 32319,6917.806,95.436,540.281,539.061,0.0
53431.0,STARLINK-4548,PAYLOAD,2023-03-06 18:39:52,15.08830332,0.0001096,53.2181,357.4516,94.0775,266.0342,-5.4052e-06,-3.74e-06,0.0,0 STARLINK-4548,1 53431U 22097AV  23065.77769020 -.00000374  00000-0 -54052-5 0  9997,2 53431  53.2181 357.4516 0001096  94.0775 266.0342 15.08830332 32402,6917.91,95.438,540.533,539.017,0.0
53431.0,STARLINK-4548,PAYLOAD,2023-03-06 20:15:15,15.0882953,0.0001503,53.2178,357.1572,79.1141,281.002,7.9191e-05,9.72e-06,0.0,0 STARLINK-4548,1 53431U 22097AV  23065.84393383  .00000972  00000-0  79191-4 0  9992,2 53431  53.2178 357.1572 0001503  79.1141 281.0020 15.08829530 32892,6917.912,95.438,540.817,538.738,0.0
53431.0,STARLINK-4548,PAYLOAD,2023-03-07 04:12:11,15.08839215,0.0001013,53.218,355.6679,76.0383,284.0722,0.00015012,2.102e-05,0.0,0 STARLINK-4548,1 53431U 22097AV  23066.17512787  .00002102  00000-0  15012-3 0  9998,2 53431  53.2180 355.6679 0001013  76.0383 284.0722 15.08839215 32462,6917.883,95.438,540.449,539.047,0.0
53431.0,STARLINK-4548,PAYLOAD,2023-03-07 18:30:39,15.0883303,0.000111,53.2184,352.9935,102.4463,257.6653,7.2438e-05,8.65e-06,0.0,0 STARLINK-4548,1 53431U 22097AV  23066.77129400  .00000865  00000-0  72438-4 0  9990,2 53431  53.2184 352.9935 0001110 102.4463 257.6653 15.08833030 32550,6917.902,95.438,540.535,538.999,0.0
53431.0,STARLINK-4548,PAYLOAD,2023-03-08 04:02:57,15.08859585,9.95e-05,53.2178,351.2097,94.1051,266.0055,0.00039909,6.073e-05,0.0,0 STARLINK-4548,1 53431U 22097AV  23067.16872286  .00006073  00000-0  39909-3 0  9993,2 53431  53.2178 351.2097 0000995  94.1051 266.0055 15.08859585 32614,6917.821,95.436,540.374,538.997,0.0
53431.0,STARLINK-4548,PAYLOAD,2023-03-08 18:21:27,15.08832679,0.0002042,53.2178,348.5347,77.1334,282.9886,0.00012171,1.649e-05,0.0,0 STARLINK-4548,1 53431U 22097AV  23067.76490098  .00001649  00000-0  12171-3 0  9992,2 53431  53.2178 348.5347 0002042  77.1334 282.9886 15.08832679 33188,6917.903,95.438,541.18,538.355,0.0
53431.0,STARLINK-4548,PAYLOAD,2023-03-09 00:42:59,15.08838209,0.0001632,53.2174,347.3449,78.9279,281.1897,0.00023409,3.439e-05,0.0,0 STARLINK-4548,1 53431U 22097AV  23068.02986048  .00003439  00000-0  23409-3 0  9992,2 53431  53.2174 347.3449 0001632  78.9279 281.1897 15.08838209 32744,6917.886,95.438,540.88,538.622,0.0
53431.0,STARLINK-4548,PAYLOAD,2023-03-09 02:18:22,15.08848502,0.000148,53.2181,347.0466,74.0583,286.0572,0.0004908,7.534e-05,0.0,0 STARLINK-4548,1 53431U 22097AV  23068.09609827  .00007534  00000-0  49080-3 0  9999,2 53431  53.2181 347.0466 0001480  74.0583 286.0572 15.08848502 32756,6917.854,95.437,540.743,538.696,0.0
53431.0,STARLINK-4548,PAYLOAD,2023-03-10 18:03:01,15.08814171,0.0001272,53.2187,339.6125,100.0904,260.0231,-0.0007213,-0.00011741,0.0,0 STARLINK-4548,1 53431U 22097AV  23069.75209913 -.00011741  00000-0 -72130-3 0  9994,2 53431  53.2187 339.6125 0001272 100.0904 260.0231 15.08814171 33005,6917.959,95.439,540.704,538.944,0.0
53431.0,STARLINK-4548,PAYLOAD,2023-03-10 21:13:47,15.08820576,0.0001316,53.2172,339.0202,90.935,269.1793,-0.00047683,-7.864e-05,0.0,0 STARLINK-4548,1 53431U 22097AV  23069.88457883 -.00007864  00000-0 -47683-3 0  9995,2 53431  53.2172 339.0202 0001316  90.9350 269.1793 15.08820576 33504,6917.94,95.439,540.715,538.894,0.0
53431.0,STARLINK-4548,PAYLOAD,2023-03-11 00:24:33,15.08826624,0.0001403,53.2186,338.4264,97.0435,263.0717,-0.00029902,-5.042e-05,0.0,0 STARLINK-4548,1 53431U 22097AV  23070.01705925 -.00005042  00000-0 -29902-3 0  9995,2 53431  53.2186 338.4264 0001403  97.0435 263.0717 15.08826624 33047,6917.921,95.438,540.757,538.816,0.0
53431.0,STARLINK-4548,PAYLOAD,2023-03-11 16:18:25,15.08835323,0.0001318,53.2175,335.4495,111.3188,248.7945,-1.112e-05,-4.65e-06,0.0,0 STARLINK-4548,1 53431U 22097AV  23070.67946054 -.00000465  00000-0 -11120-4 0  9995,2 53431  53.2175 335.4495 0001318 111.3188 248.7945 15.08835323 33148,6917.895,95.438,540.671,538.848,0.0
53431.0,STARLINK-4548,PAYLOAD,2023-03-12 01:50:44,15.08849669,0.0001339,53.2167,333.6671,96.961,263.1535,0.00052994,8.158e-05,0.0,0 STARLINK-4548,1 53431U 22097AV  23071.07689856  .00008158  00000-0  52994-3 0  9992,2 53431  53.2167 333.6671 0001339  96.9610 263.1535 15.08849669 33207,6917.851,95.437,540.642,538.79,0.0
53431.0,STARLINK-4548,PAYLOAD,2023-03-12 17:44:35,15.0884486,0.000123,53.2176,330.6926,104.9883,255.1246,0.00032238,4.847e-05,0.0,0 STARLINK-4548,1 53431U 22097AV  23071.73930165  .00004847  00000-0  32238-3 0  9997,2 53431  53.2176 330.6926 0001230 104.9883 255.1246 15.08844860 33308,6917.866,95.437,540.581,538.88,0.0
53431.0,STARLINK-4548,PAYLOAD,2023-03-13 01:41:31,15.08853638,0.0001589,53.2165,329.2044,106.9438,253.1729,0.00039225,5.962e-05,0.0,0 STARLINK-4548,1 53431U 22097AV  23072.07049799  .00005962  00000-0  39225-3 0  9991,2 53431  53.2165 329.2044 0001589 106.9438 253.1729 15.08853638 33831,6917.839,95.437,540.803,538.604,0.0
53431.0,STARLINK-4548,PAYLOAD,2023-03-13 15:59:59,15.08829132,0.0002441,53.2175,326.5226,155.2669,204.8441,-0.00018674,-3.258e-05,0.0,0 STARLINK-4548,1 53431U 22097AV  23072.66666136 -.00003258  00000-0 -18674-3 0  9999,2 53431  53.2175 326.5226 0002441 155.2669 204.8441 15.08829132 33448,6917.914,95.438,541.467,538.09,0.0
53431.0,STARLINK-4548,PAYLOAD,2023-03-13 22:21:32,15.08834213,0.0001522,53.2169,325.3382,126.0913,234.0221,0.0001455,2.028e-05,0.0,0 STARLINK-4548,1 53431U 22097AV  23072.93162429  .00002028  00000-0  14550-3 0  9996,2 53431  53.2169 325.3382 0001522 126.0913 234.0221 15.08834213 33962,6917.898,95.438,540.816,538.71,0.0
53431.0,STARLINK-4548,PAYLOAD,2023-03-14 01:32:18,15.08840481,0.0001131,53.2169,324.7444,114.6992,245.4118,0.00043301,6.61e-05,0.0,0 STARLINK-4548,1 53431U 22097AV  23073.06410458  .00006610  00000-0  43301-3 0  9996,2 53431  53.2169 324.7444 0001131 114.6992 245.4118 15.08840481 33505,6917.879,95.438,540.526,538.962,0.0
53431.0,STARLINK-4548,PAYLOAD,2023-03-14 15:50:46,15.08848589,0.0001041,53.2168,322.0695,106.7444,253.3662,0.00076936,0.0001198,0.0,0 STARLINK-4548,1 53431U 22097AV  23073.66026590  .00011980  00000-0  76936-3 0  9998,2 53431  53.2168 322.0695 0001041 106.7444 253.3662 15.08848589 34079,6917.854,95.437,540.439,538.999,0.0
53431.0,STARLINK-4548,PAYLOAD,2023-03-15 01:23:05,15.08879507,0.0001287,53.2175,320.2858,87.7634,272.3506,0.0015027,0.00023734,0.0,0 STARLINK-4548,1 53431U 22097AV  23074.05769784  .00023734  00000-0  15027-2 0  9994,2 53431  53.2175 320.2858 0001287  87.7634 272.3506 15.08879507 33654,6917.76,95.435,540.515,538.734,0.0
